MATS                    
1 54227U 22147A   26066.59135361  .00005046  00000+0  36275-3 0  9999
2 54227  97.6842  68.6794 0012677 174.7624 185.3737 15.04645728182481
JILIN-1 GAOFEN 03D54    
1 54254U 22155D   26066.62309192  .00121757  00000+0  10977-2 0  9995
2 54254  97.6027 209.2302 0002537 329.8144  30.2970 15.67782746184264
EOS-6 (OCEANSAT-3)      
1 54361U 22158A   26066.58277424  .00000537  00000+0  15952-3 0  9995
2 54361  98.3489 166.1601 0000089 103.6362 256.4841 14.47003511173143
DONGPO 08               
1 54686U 22167E   26066.60472264  .00019371  00000+0  63847-3 0  9999
2 54686  97.6758 230.9499 0009131 161.8115 198.3454 15.31465493179761
2022-167F               
1 54687U 22167F   26066.64382370  .00102198  00000+0  91459-3 0  9992
2 54687  97.6214 244.1950 0001781  41.5799 318.5596 15.68030328180819
DONGPO 10               
1 54689U 22167H   26066.59686372  .00018464  00000+0  59544-3 0  9998
2 54689  97.6844 232.6563 0006169 114.1733 246.0153 15.32199581179799
JILIN-1 GAOFEN 03D48    
1 54695U 22167P   26066.64211756  .00018864  00000+0  59560-3 0  9993
2 54695  97.6777 232.0581 0007567 118.6466 241.5537 15.32864553179828
STAR VIBE               
1 55009U 23001A   26066.62517597  .00020314  00000+0  51535-3 0  9998
2 55009  97.3292 130.8338 0007555 117.7687 242.4326 15.39684369176582
BRO-8                   
1 55011U 23001C   26066.62727777  .00038404  00000+0  86939-3 0  9999
2 55011  97.3343 130.7415 0007803 128.0046 232.1907 15.42998325176515
CONNECTA T1.2           
1 55012U 23001D   26066.45403465  .00025705  00000+0  55739-3 0  9990
2 55012  97.3389 135.7806 0008082 110.2112 250.0006 15.44357964176814
BIRKELAND               
1 55015U 23001G   26066.59545198  .00013660  00000+0  36537-3 0  9990
2 55015  97.3446 134.3987 0008633 109.6242 250.5935 15.38134609176722
ION SCV-008             
1 55051U 23001AU  26066.20344887  .00010419  00000+0  39249-3 0  9992
2 55051  97.5684 160.9480 0015437  17.7367 342.4408 15.27174835175760
ION SCV-007             
1 55060U 23001BD  26066.61368199  .00000742  00000+0  11124-3 0  9999
2 55060  97.9125 131.5969 0011199 308.0942  51.9258 14.77449448171250
HUYGENS                 
1 55093U 23001CN  26066.59551459  .00014142  00000+0  37788-3 0  9998
2 55093  97.3357 133.7564 0011452  91.6760 268.5797 15.38129131176742
SHARJAHSAT-1            
1 55104U 23001CZ  26066.63686427  .00026798  00000+0  56484-3 0  9994
2 55104  97.3289 134.2270 0007685 111.8421 248.3646 15.45191183176799
