[{"OBJECT_NAME":"MATS","OBJECT_ID":"2022-147A","EPOCH":"2026-03-07T14:11:32.951904","MEAN_MOTION":15.04645728,"ECCENTRICITY":0.00126778,"INCLINATION":97.6842,"RA_OF_ASC_NODE":68.6794,"ARG_OF_PERICENTER":174.7624,"MEAN_ANOMALY":185.3737,"EPHEMERIS_TYPE":0,"CLASSIFICATION_TYPE":"U","NORAD_CAT_ID":54227,"ELEMENT_SET_NO":999,"REV_AT_EPOCH":18248,"BSTAR":0.00036274774,"MEAN_MOTION_DOT":5.046e-5,"MEAN_MOTION_DDOT":0},{"OBJECT_NAME":"JILIN-1 GAOFEN 03D54","OBJECT_ID":"2022-155D","EPOCH":"2026-03-07T14:57:15.141888","MEAN_MOTION":15.67782746,"ECCENTRICITY":0.0002537,"INCLINATION":97.6027,"RA_OF_ASC_NODE":209.2302,"ARG_OF_PERICENTER":329.8144,"MEAN_ANOMALY":30.297,"EPHEMERIS_TYPE":0,"CLASSIFICATION_TYPE":"U","NORAD_CAT_ID":54254,"ELEMENT_SET_NO":999,"REV_AT_EPOCH":18426,"BSTAR":0.0010977257,"MEAN_MOTION_DOT":0.00121757,"MEAN_MOTION_DDOT":0},{"OBJECT_NAME":"EOS-6 (OCEANSAT-3)","OBJECT_ID":"2022-158A","EPOCH":"2026-03-07T13:59:11.694336","MEAN_MOTION":14.47003511,"ECCENTRICITY":8.91e-6,"INCLINATION":98.3489,"RA_OF_ASC_NODE":166.1601,"ARG_OF_PERICENTER":103.6362,"MEAN_ANOMALY":256.4841,"EPHEMERIS_TYPE":0,"CLASSIFICATION_TYPE":"U","NORAD_CAT_ID":54361,"ELEMENT_SET_NO":999,"REV_AT_EPOCH":17314,"BSTAR":0.00015951516,"MEAN_MOTION_DOT":5.37e-6,"MEAN_MOTION_DDOT":0},{"OBJECT_NAME":"DONGPO 08","OBJECT_ID":"2022-167E","EPOCH":"2026-03-07T14:30:48.036096","MEAN_MOTION":15.31465493,"ECCENTRICITY":0.00091315,"INCLINATION":97.6758,"RA_OF_ASC_NODE":230.9499,"ARG_OF_PERICENTER":161.8115,"MEAN_ANOMALY":198.3454,"EPHEMERIS_TYPE":0,"CLASSIFICATION_TYPE":"U","NORAD_CAT_ID":54686,"ELEMENT_SET_NO":999,"REV_AT_EPOCH":17976,"BSTAR":0.00063847355,"MEAN_MOTION_DOT":0.00019371,"MEAN_MOTION_DDOT":0},{"OBJECT_NAME":"2022-167F","OBJECT_ID":"2022-167F","EPOCH":"2026-03-07T15:27:06.367680","MEAN_MOTION":15.68030328,"ECCENTRICITY":0.00017813,"INCLINATION":97.6214,"RA_OF_ASC_NODE":244.195,"ARG_OF_PERICENTER":41.5799,"MEAN_ANOMALY":318.5596,"EPHEMERIS_TYPE":0,"CLASSIFICATION_TYPE":"U","NORAD_CAT_ID":54687,"ELEMENT_SET_NO":999,"REV_AT_EPOCH":18081,"BSTAR":0.00091458747,"MEAN_MOTION_DOT":0.00102198,"MEAN_MOTION_DDOT":0},{"OBJECT_NAME":"DONGPO 10","OBJECT_ID":"2022-167H","EPOCH":"2026-03-07T14:19:29.025408","MEAN_MOTION":15.32199581,"ECCENTRICITY":0.0006169,"INCLINATION":97.6844,"RA_OF_ASC_NODE":232.6563,"ARG_OF_PERICENTER":114.1733,"MEAN_ANOMALY":246.0153,"EPHEMERIS_TYPE":0,"CLASSIFICATION_TYPE":"U","NORAD_CAT_ID":54689,"ELEMENT_SET_NO":999,"REV_AT_EPOCH":17979,"BSTAR":0.00059544141,"MEAN_MOTION_DOT":0.00018464,"MEAN_MOTION_DDOT":0},{"OBJECT_NAME":"JILIN-1 GAOFEN 03D48","OBJECT_ID":"2022-167P","EPOCH":"2026-03-07T15:24:38.957184","MEAN_MOTION":15.32864553,"ECCENTRICITY":0.00075676,"INCLINATION":97.6777,"RA_OF_ASC_NODE":232.0581,"ARG_OF_PERICENTER":118.6466,"MEAN_ANOMALY":241.5537,"EPHEMERIS_TYPE":0,"CLASSIFICATION_TYPE":"U","NORAD_CAT_ID":54695,"ELEMENT_SET_NO":999,"REV_AT_EPOCH":17982,"BSTAR":0.00059560044,"MEAN_MOTION_DOT":0.00018864,"MEAN_MOTION_DDOT":0},{"OBJECT_NAME":"STAR VIBE","OBJECT_ID":"2023-001A","EPOCH":"2026-03-07T15:00:15.203808","MEAN_MOTION":15.39684369,"ECCENTRICITY":0.00075552,"INCLINATION":97.3292,"RA_OF_ASC_NODE":130.8338,"ARG_OF_PERICENTER":117.7687,"MEAN_ANOMALY":242.4326,"EPHEMERIS_TYPE":0,"CLASSIFICATION_TYPE":"U","NORAD_CAT_ID":55009,"ELEMENT_SET_NO":999,"REV_AT_EPOCH":17658,"BSTAR":0.0005153528,"MEAN_MOTION_DOT":0.00020314,"MEAN_MOTION_DDOT":0},{"OBJECT_NAME":"BRO-8","OBJECT_ID":"2023-001C","EPOCH":"2026-03-07T15:03:16.799328","MEAN_MOTION":15.42998325,"ECCENTRICITY":0.0007803,"INCLINATION":97.3343,"RA_OF_ASC_NODE":130.7415,"ARG_OF_PERICENTER":128.0046,"MEAN_ANOMALY":232.1907,"EPHEMERIS_TYPE":0,"CLASSIFICATION_TYPE":"U","NORAD_CAT_ID":55011,"ELEMENT_SET_NO":999,"REV_AT_EPOCH":17651,"BSTAR":0.0008693932,"MEAN_MOTION_DOT":0.00038404,"MEAN_MOTION_DDOT":0},{"OBJECT_NAME":"CONNECTA T1.2","OBJECT_ID":"2023-001D","EPOCH":"2026-03-07T10:53:48.593760","MEAN_MOTION":15.44357964,"ECCENTRICITY":0.00080826,"INCLINATION":97.3389,"RA_OF_ASC_NODE":135.7806,"ARG_OF_PERICENTER":110.2112,"MEAN_ANOMALY":250.0006,"EPHEMERIS_TYPE":0,"CLASSIFICATION_TYPE":"U","NORAD_CAT_ID":55012,"ELEMENT_SET_NO":999,"REV_AT_EPOCH":17681,"BSTAR":0.00055739356,"MEAN_MOTION_DOT":0.00025705,"MEAN_MOTION_DDOT":0},{"OBJECT_NAME":"BIRKELAND","OBJECT_ID":"2023-001G","EPOCH":"2026-03-07T14:17:27.051072","MEAN_MOTION":15.38134609,"ECCENTRICITY":0.00086334,"INCLINATION":97.3446,"RA_OF_ASC_NODE":134.3987,"ARG_OF_PERICENTER":109.6242,"MEAN_ANOMALY":250.5935,"EPHEMERIS_TYPE":0,"CLASSIFICATION_TYPE":"U","NORAD_CAT_ID":55015,"ELEMENT_SET_NO":999,"REV_AT_EPOCH":17672,"BSTAR":0.00036537216,"MEAN_MOTION_DOT":0.0001366,"MEAN_MOTION_DDOT":0},{"OBJECT_NAME":"ION SCV-008","OBJECT_ID":"2023-001AU","EPOCH":"2026-03-07T04:52:57.982368","MEAN_MOTION":15.27174835,"ECCENTRICITY":0.00154378,"INCLINATION":97.5684,"RA_OF_ASC_NODE":160.948,"ARG_OF_PERICENTER":17.7367,"MEAN_ANOMALY":342.4408,"EPHEMERIS_TYPE":0,"CLASSIFICATION_TYPE":"U","NORAD_CAT_ID":55051,"ELEMENT_SET_NO":999,"REV_AT_EPOCH":17576,"BSTAR":0.00039249157,"MEAN_MOTION_DOT":0.00010419,"MEAN_MOTION_DDOT":0},{"OBJECT_NAME":"ION SCV-007","OBJECT_ID":"2023-001BD","EPOCH":"2026-03-07T14:43:42.123936","MEAN_MOTION":14.77449448,"ECCENTRICITY":0.0011199,"INCLINATION":97.9125,"RA_OF_ASC_NODE":131.5969,"ARG_OF_PERICENTER":308.0942,"MEAN_ANOMALY":51.9258,"EPHEMERIS_TYPE":0,"CLASSIFICATION_TYPE":"U","NORAD_CAT_ID":55060,"ELEMENT_SET_NO":999,"REV_AT_EPOCH":17125,"BSTAR":0.00011123536,"MEAN_MOTION_DOT":7.42e-6,"MEAN_MOTION_DDOT":0},{"OBJECT_NAME":"HUYGENS","OBJECT_ID":"2023-001CN","EPOCH":"2026-03-07T14:17:32.460576","MEAN_MOTION":15.38129131,"ECCENTRICITY":0.00114529,"INCLINATION":97.3357,"RA_OF_ASC_NODE":133.7564,"ARG_OF_PERICENTER":91.676,"MEAN_ANOMALY":268.5797,"EPHEMERIS_TYPE":0,"CLASSIFICATION_TYPE":"U","NORAD_CAT_ID":55093,"ELEMENT_SET_NO":999,"REV_AT_EPOCH":17674,"BSTAR":0.00037788087,"MEAN_MOTION_DOT":0.00014142,"MEAN_MOTION_DDOT":0},{"OBJECT_NAME":"SHARJAHSAT-1","OBJECT_ID":"2023-001CZ","EPOCH":"2026-03-07T15:17:05.072928","MEAN_MOTION":15.45191183,"ECCENTRICITY":0.00076852,"INCLINATION":97.3289,"RA_OF_ASC_NODE":134.227,"ARG_OF_PERICENTER":111.8421,"MEAN_ANOMALY":248.3646,"EPHEMERIS_TYPE":0,"CLASSIFICATION_TYPE":"U","NORAD_CAT_ID":55104,"ELEMENT_SET_NO":999,"REV_AT_EPOCH":17679,"BSTAR":0.00056484224,"MEAN_MOTION_DOT":0.00026798,"MEAN_MOTION_DDOT":0}]
